[{"OBJECT_NAME":"STARLINK-30388","OBJECT_ID":"2023-134P","EPOCH":"2026-03-09T22:00:01.999584","MEAN_MOTION":15.27569806,"ECCENTRICITY":0.00014952,"INCLINATION":42.9995,"RA_OF_ASC_NODE":192.9965,"ARG_OF_PERICENTER":265.6995,"MEAN_ANOMALY":104.4744,"EPHEMERIS_TYPE":0,"CLASSIFICATION_TYPE":"U","NORAD_CAT_ID":57784,"ELEMENT_SET_NO":999,"REV_AT_EPOCH":578,"BSTAR":0.00067342336,"MEAN_MOTION_DOT":0.00018309,"MEAN_MOTION_DDOT":0},{"OBJECT_NAME":"TRANSPORTER-12 OBJECT BT","OBJECT_ID":"2025-009BT","EPOCH":"2026-03-09T17:08:24.281088","MEAN_MOTION":15.27872239,"ECCENTRICITY":0.00036816,"INCLINATION":97.4094,"RA_OF_ASC_NODE":151.5992,"ARG_OF_PERICENTER":313.5044,"MEAN_ANOMALY":46.5889,"EPHEMERIS_TYPE":0,"CLASSIFICATION_TYPE":"U","NORAD_CAT_ID":62674,"ELEMENT_SET_NO":999,"REV_AT_EPOCH":12136,"BSTAR":0.000510288,"MEAN_MOTION_DOT":0.00013824,"MEAN_MOTION_DDOT":0}]
